{
  "type": "FeatureCollection",
  "features": [
    {
      "type": "Feature",
      "properties": {
        "norad_id": 64694,
        "name": "GOSAT-GW (IBUKI GW)",
        "group": "resource",
        "lat": -66.43641823035415,
        "lon": -52.238361548338766,
        "alt_km": 676.9788387277358,
        "timestamp": "2025-12-19T10:50:00.849715+00:00",
        "meta_object_name": "GOSAT-GW (IBUKI GW)",
        "meta_object_id": "2025-141A",
        "meta_epoch": "2025-12-18T23:41:15.358848",
        "meta_mean_motion": 14.67563731,
        "meta_eccentricity": 0.00014451,
        "meta_inclination": 98.0434,
        "meta_ra_of_asc_node": 288.3867,
        "meta_arg_of_pericenter": 84.0149,
        "meta_mean_anomaly": 276.122,
        "meta_ephemeris_type": 0,
        "meta_classification_type": "U",
        "meta_norad_cat_id": 64694,
        "meta_element_set_no": 999,
        "meta_rev_at_epoch": 2541,
        "meta_bstar": 9.1760756e-05,
        "meta_mean_motion_dot": 4.73e-06,
        "meta_mean_motion_ddot": 0,
        "tle_line1": "1 64694U 25141A   25352.98698332  .00000473  00000+0  91761-4 0  9998",
        "tle_line2": "2 64694  98.0434 288.3867 0001445  84.0149 276.1220 14.67563731 25416"
      },
      "geometry": {
        "type": "Point",
        "coordinates": [
          -52.238361548338766,
          -66.43641823035415
        ]
      }
    },
    {
      "type": "Feature",
      "properties": {
        "norad_id": 64876,
        "name": "IONOSFERA-M 3",
        "group": "resource",
        "lat": -78.4360358853565,
        "lon": 87.58587960076201,
        "alt_km": 829.0355776390279,
        "timestamp": "2025-12-19T10:50:00.849725+00:00",
        "meta_object_name": "IONOSFERA-M 3",
        "meta_object_id": "2025-155A",
        "meta_epoch": "2025-12-18T21:46:40.833984",
        "meta_mean_motion": 14.21442468,
        "meta_eccentricity": 0.00020652,
        "meta_inclination": 98.5791,
        "meta_ra_of_asc_node": 314.5991,
        "meta_arg_of_pericenter": 49.9754,
        "meta_mean_anomaly": 310.1604,
        "meta_ephemeris_type": 0,
        "meta_classification_type": "U",
        "meta_norad_cat_id": 64876,
        "meta_element_set_no": 999,
        "meta_rev_at_epoch": 2079,
        "meta_bstar": 3.8045791e-05,
        "meta_mean_motion_dot": 4e-07,
        "meta_mean_motion_ddot": 0,
        "tle_line1": "1 64876U 25155A   25352.90741706  .00000040  00000+0  38046-4 0  9998",
        "tle_line2": "2 64876  98.5791 314.5991 0002065  49.9754 310.1604 14.21442468 20794"
      },
      "geometry": {
        "type": "Point",
        "coordinates": [
          87.58587960076201,
          -78.4360358853565
        ]
      }
    },
    {
      "type": "Feature",
      "properties": {
        "norad_id": 64877,
        "name": "IONOSFERA-M 4",
        "group": "resource",
        "lat": 78.87524332353182,
        "lon": -95.09791223710583,
        "alt_km": 812.1804509701278,
        "timestamp": "2025-12-19T10:50:00.849736+00:00",
        "meta_object_name": "IONOSFERA-M 4",
        "meta_object_id": "2025-155B",
        "meta_epoch": "2025-12-18T22:37:10.131168",
        "meta_mean_motion": 14.21443707,
        "meta_eccentricity": 0.00014567,
        "meta_inclination": 98.5789,
        "meta_ra_of_asc_node": 314.5527,
        "meta_arg_of_pericenter": 57.233,
        "meta_mean_anomaly": 302.8988,
        "meta_ephemeris_type": 0,
        "meta_classification_type": "U",
        "meta_norad_cat_id": 64877,
        "meta_element_set_no": 999,
        "meta_rev_at_epoch": 2079,
        "meta_bstar": 4.352734e-05,
        "meta_mean_motion_dot": 5.2e-07,
        "meta_mean_motion_ddot": 0,
        "tle_line1": "1 64877U 25155B   25352.94247837  .00000052  00000+0  43527-4 0  9992",
        "tle_line2": "2 64877  98.5789 314.5527 0001456  57.2330 302.8988 14.21443707 20792"
      },
      "geometry": {
        "type": "Point",
        "coordinates": [
          -95.09791223710583,
          78.87524332353182
        ]
      }
    },
    {
      "type": "Feature",
      "properties": {
        "norad_id": 64899,
        "name": "MICROCARB",
        "group": "resource",
        "lat": 18.074176886980243,
        "lon": 66.0577718297297,
        "alt_km": 658.2260584876349,
        "timestamp": "2025-12-19T10:50:00.849746+00:00",
        "meta_object_name": "MICROCARB",
        "meta_object_id": "2025-156A",
        "meta_epoch": "2025-12-18T18:26:14.251200",
        "meta_mean_motion": 14.72066629,
        "meta_eccentricity": 0.00174471,
        "meta_inclination": 98.002,
        "meta_ra_of_asc_node": 68.0169,
        "meta_arg_of_pericenter": 126.5587,
        "meta_mean_anomaly": 233.723,
        "meta_ephemeris_type": 0,
        "meta_classification_type": "U",
        "meta_norad_cat_id": 64899,
        "meta_element_set_no": 999,
        "meta_rev_at_epoch": 2142,
        "meta_bstar": 9.4104373e-05,
        "meta_mean_motion_dot": 5.43e-06,
        "meta_mean_motion_ddot": 0,
        "tle_line1": "1 64899U 25156A   25352.76822050  .00000543  00000+0  94104-4 0  9995",
        "tle_line2": "2 64899  98.0020  68.0169 0017447 126.5587 233.7230 14.72066629 21426"
      },
      "geometry": {
        "type": "Point",
        "coordinates": [
          66.0577718297297,
          18.074176886980243
        ]
      }
    },
    {
      "type": "Feature",
      "properties": {
        "norad_id": 64900,
        "name": "CO3D 3",
        "group": "resource",
        "lat": 38.324829821778266,
        "lon": -104.35280974685365,
        "alt_km": 502.0094954308979,
        "timestamp": "2025-12-19T10:50:00.849757+00:00",
        "meta_object_name": "CO3D 3",
        "meta_object_id": "2025-156B",
        "meta_epoch": "2025-12-18T23:09:22.982976",
        "meta_mean_motion": 15.20195655,
        "meta_eccentricity": 0.00013876,
        "meta_inclination": 97.4346,
        "meta_ra_of_asc_node": 69.243,
        "meta_arg_of_pericenter": 80.5157,
        "meta_mean_anomaly": 279.6235,
        "meta_ephemeris_type": 0,
        "meta_classification_type": "U",
        "meta_norad_cat_id": 64900,
        "meta_element_set_no": 999,
        "meta_rev_at_epoch": 2215,
        "meta_bstar": 0.00031601564,
        "meta_mean_motion_dot": 6.778e-05,
        "meta_mean_motion_ddot": 0,
        "tle_line1": "1 64900U 25156B   25352.96484934  .00006778  00000+0  31602-3 0  9994",
        "tle_line2": "2 64900  97.4346  69.2430 0001387  80.5157 279.6235 15.20195655 22156"
      },
      "geometry": {
        "type": "Point",
        "coordinates": [
          -104.35280974685365,
          38.324829821778266
        ]
      }
    },
    {
      "type": "Feature",
      "properties": {
        "norad_id": 64901,
        "name": "CO3D 4",
        "group": "resource",
        "lat": 39.134396319485894,
        "lon": -104.17785756551304,
        "alt_km": 501.5105477228617,
        "timestamp": "2025-12-19T10:50:00.849767+00:00",
        "meta_object_name": "CO3D 4",
        "meta_object_id": "2025-156C",
        "meta_epoch": "2025-12-18T23:09:36.171936",
        "meta_mean_motion": 15.20225883,
        "meta_eccentricity": 0.00012617,
        "meta_inclination": 97.4346,
        "meta_ra_of_asc_node": 69.2434,
        "meta_arg_of_pericenter": 174.9978,
        "meta_mean_anomaly": 185.127,
        "meta_ephemeris_type": 0,
        "meta_classification_type": "U",
        "meta_norad_cat_id": 64901,
        "meta_element_set_no": 999,
        "meta_rev_at_epoch": 2215,
        "meta_bstar": 0.00023869296,
        "meta_mean_motion_dot": 5.107e-05,
        "meta_mean_motion_ddot": 0,
        "tle_line1": "1 64901U 25156C   25352.96500199  .00005107  00000+0  23869-3 0  9998",
        "tle_line2": "2 64901  97.4346  69.2434 0001261 174.9978 185.1270 15.20225883 22158"
      },
      "geometry": {
        "type": "Point",
        "coordinates": [
          -104.17785756551304,
          39.134396319485894
        ]
      }
    },
    {
      "type": "Feature",
      "properties": {
        "norad_id": 64902,
        "name": "CO3D 2",
        "group": "resource",
        "lat": -37.067616961928174,
        "lon": 75.28122826988279,
        "alt_km": 511.65144985808547,
        "timestamp": "2025-12-19T10:50:00.849778+00:00",
        "meta_object_name": "CO3D 2",
        "meta_object_id": "2025-156D",
        "meta_epoch": "2025-12-18T22:21:35.924256",
        "meta_mean_motion": 15.20201954,
        "meta_eccentricity": 8.075e-05,
        "meta_inclination": 97.4339,
        "meta_ra_of_asc_node": 69.1085,
        "meta_arg_of_pericenter": 54.6633,
        "meta_mean_anomaly": 305.4677,
        "meta_ephemeris_type": 0,
        "meta_classification_type": "U",
        "meta_norad_cat_id": 64902,
        "meta_element_set_no": 999,
        "meta_rev_at_epoch": 2214,
        "meta_bstar": 0.00031849148,
        "meta_mean_motion_dot": 6.833e-05,
        "meta_mean_motion_ddot": 0,
        "tle_line1": "1 64902U 25156D   25352.93166579  .00006833  00000+0  31849-3 0  9990",
        "tle_line2": "2 64902  97.4339  69.1085 0000807  54.6633 305.4677 15.20201954 22149"
      },
      "geometry": {
        "type": "Point",
        "coordinates": [
          75.28122826988279,
          -37.067616961928174
        ]
      }
    }
  ]
}